IRIDIUM 106             
1 41917U 17003A   26004.48831338 -.00000018  00000+0 -13450-4 0  9990
2 41917  86.4009 156.9573 0002304  89.4544 270.6916 14.34217434469744
IRIDIUM 103             
1 41918U 17003B   26004.47562664  .00000082  00000+0  22180-4 0  9992
2 41918  86.4004 156.8627 0002107 105.3201 254.8227 14.34216957469768
IRIDIUM 109             
1 41919U 17003C   26004.48196779  .00000364  00000+0  12274-3 0  9999
2 41919  86.3990 156.9156 0002165 100.4448 259.6992 14.34219236469735
IRIDIUM 102             
1 41920U 17003D   26004.38048592  .00000352  00000+0  11855-3 0  9990
2 41920  86.4000 156.8862 0001853  92.7548 267.3860 14.34219543469809
IRIDIUM 105             
1 41921U 17003E   26004.35119655  .00000523  00000+0  17959-3 0  9998
2 41921  86.3994 125.3885 0002050  98.9343 261.2085 14.34227835471659
IRIDIUM 104             
1 41922U 17003F   26004.39317277 -.00000038  00000+0 -20564-4 0  9993
2 41922  86.4012 156.9213 0001651 103.6282 256.5098 14.34217886469797
IRIDIUM 114             
1 41923U 17003G   26004.39951387  .00000234  00000+0  76495-4 0  9990
2 41923  86.4005 156.9022 0001894  98.7473 261.3938 14.34219333469777
IRIDIUM 108             
1 41924U 17003H   26004.35803724  .00000052  00000+0  11641-4 0  9998
2 41924  86.3989 125.2741 0001998  91.8504 268.2920 14.34217997471627
